<?xml version="1.0" encoding="UTF-8"?>
<kml xmlns="http://www.opengis.net/kml/2.2">
  <Document>
    <name>Untitled layer</name>
    <Style id="poly-000000-1200-77-nodesc-normal">
      <LineStyle>
        <color>ff000000</color>
        <width>1.2</width>
      </LineStyle>
      <PolyStyle>
        <color>4d000000</color>
        <fill>1</fill>
        <outline>1</outline>
      </PolyStyle>
      <BalloonStyle>
        <text><![CDATA[<h3>$[name]</h3>]]></text>
      </BalloonStyle>
    </Style>
    <Style id="poly-000000-1200-77-nodesc-highlight">
      <LineStyle>
        <color>ff000000</color>
        <width>1.8</width>
      </LineStyle>
      <PolyStyle>
        <color>4d000000</color>
        <fill>1</fill>
        <outline>1</outline>
      </PolyStyle>
      <BalloonStyle>
        <text><![CDATA[<h3>$[name]</h3>]]></text>
      </BalloonStyle>
    </Style>
    <StyleMap id="poly-000000-1200-77-nodesc">
      <Pair>
        <key>normal</key>
        <styleUrl>#poly-000000-1200-77-nodesc-normal</styleUrl>
      </Pair>
      <Pair>
        <key>highlight</key>
        <styleUrl>#poly-000000-1200-77-nodesc-highlight</styleUrl>
      </Pair>
    </StyleMap>
    <Placemark>
      <name>West Laurelwood</name>
      <styleUrl>#poly-000000-1200-77-nodesc</styleUrl>
      <Polygon>
        <outerBoundaryIs>
          <LinearRing>
            <tessellate>1</tessellate>
            <coordinates>
              -118.3884022,34.126397,0
              -118.3869646,34.1265568,0
              -118.3860204,34.1254733,0
              -118.385205,34.1263437,0
              -118.3842824,34.1265746,0
              -118.3837888,34.1260772,0
              -118.3829305,34.1266634,0
              -118.3793686,34.1269298,0
              -118.3802269,34.1303047,0
              -118.382952,34.1318499,0
              -118.3853982,34.1314947,0
              -118.3865569,34.1308908,0
              -118.3891318,34.1306954,0
              -118.3867071,34.1302869,0
              -118.3862779,34.1299139,0
              -118.3863852,34.1289547,0
              -118.3871362,34.1287949,0
              -118.3875225,34.1273739,0
              -118.3884022,34.126397,0
            </coordinates>
          </LinearRing>
        </outerBoundaryIs>
      </Polygon>
    </Placemark>
    <Placemark>
      <name>East Laurelwood</name>
      <styleUrl>#poly-000000-1200-77-nodesc</styleUrl>
      <Polygon>
        <outerBoundaryIs>
          <LinearRing>
            <tessellate>1</tessellate>
            <coordinates>
              -118.3756158,34.1338371,0
              -118.3752939,34.1332687,0
              -118.3763668,34.1325671,0
              -118.3770534,34.1327004,0
              -118.378416,34.1328336,0
              -118.3801755,34.132656,0
              -118.3810982,34.1323185,0
              -118.3810767,34.131981,0
              -118.3813128,34.1317057,0
              -118.3799288,34.1304091,0
              -118.3793494,34.1296631,0
              -118.3784911,34.1282421,0
              -118.3788559,34.1275849,0
              -118.379167,34.1269455,0
              -118.3789203,34.1258175,0
              -118.378019,34.125187,0
              -118.3762702,34.124432,0
              -118.3761737,34.1247074,0
              -118.3758089,34.1246896,0
              -118.3761415,34.1250715,0
              -118.3761415,34.1254179,0
              -118.3757552,34.1261284,0
              -118.3756265,34.1270343,0
              -118.3752295,34.1274695,0
              -118.3744892,34.1279313,0
              -118.3739957,34.1277803,0
              -118.3721074,34.1264214,0
              -118.3719814,34.1267567,0
              -118.3721128,34.1271631,0
              -118.3728906,34.1277981,0
              -118.3739313,34.1284464,0
              -118.3740494,34.1289793,0
              -118.3745965,34.1297164,0
              -118.3751544,34.1302848,0
              -118.3750793,34.1310752,0
              -118.3752724,34.1322208,0
              -118.3740172,34.1328602,0
              -118.373867,34.1331799,0
              -118.3745751,34.1338548,0
              -118.3756158,34.1338371,0
            </coordinates>
          </LinearRing>
        </outerBoundaryIs>
      </Polygon>
    </Placemark>
  </Document>
</kml>
